Number,Street,Zip,lat,lng
10108,Chariot Court,20850,39.0965609,-77.2103585
10104,Chariot Court,20850,39.0970563,-77.2101339
10100,Chariot Court,20850,39.0969113,-77.2099093
10105,Chariot Court,20850,39.0970162,-77.2104932
11401,Cromwood Lane,20850,39.4018674,-76.5535702
11403,Cromwood Lane,20850,39.4018674,-76.5535702
11405,Cromwood Lane,20850,39.4018674,-76.5535702
11407,Cromwood Lane,20850,39.4018674,-76.5535702
11409,Cromwood Lane,20850,39.4018674,-76.5535702
11411,Cromwood Lane,20850,39.4018674,-76.5535702
11413,Cromwood Lane,20850,39.4018674,-76.5535702
1,Floral Park Ct,20850,39.0896248,-77.2180727
5,Floral Park Ct,20850,39.089636,-77.2180521
9,Floral Park Ct,20850,39.0896472,-77.2180314
10,Floral Park Ct,20850,39.0896476,-77.2180306
6,Floral Park Ct,20850,39.0896362,-77.2180517
2,Floral Park Ct,20850,39.0896248,-77.2180727
14226,Floral Park Drive,20850,39.0900998,-77.2167293
14224,Floral Park Drive,20850,39.0898875,-77.2169249
14220,Floral Park Drive,20850,39.0896582,-77.2170748
14216,Floral Park Drive,20850,39.0894506,-77.2171855
14200,Floral Park Drive,20850,39.0885009,-77.2174309
14201,Floral Park Drive,20850,39.0882747,-77.2173875
14205,Floral Park Drive,20850,39.0884138,-77.2171171
14209,Floral Park Drive,20850,39.0887052,-77.2168754
14213,Floral Park Drive,20850,39.0890042,-77.2167524
14221,Floral Park Drive,20850,39.0896314,-77.2164942
14225,Floral Park Drive,20850,39.0898183,-77.2163311
14227,Floral Park Drive,20850,39.0900007,-77.2161553
14229,Floral Park Drive,20850,39.0900985,-77.2158567
10601,Floral Park Lane,20850,39.0891452,-77.2173439
10605,Floral Park Lane,20850,39.0893481,-77.2175397
10621,Floral Park Lane,20850,39.0901337,-77.2181486
10625,Floral Park Lane,20850,39.0903827,-77.2183405
10636,Floral Park Lane,20850,39.0903827,-77.2183405
10632,Floral Park Lane,20850,39.0903827,-77.2183405
10628,Floral Park Lane,20850,39.0901983,-77.2186684
10624,Floral Park Lane,20850,39.0899973,-77.2186247
10620,Floral Park Lane,20850,39.0897293,-77.2184522
10616,Floral Park Lane,20850,39.089644,-77.2180925
10612,Floral Park Lane,20850,39.0896293,-77.2180828
10608,Floral Park Lane,20850,39.0891262,-77.2179861
10604,Floral Park Lane,20850,39.088878,-77.2177604
13601,Gum Spring Dr,20850,39.0831924,-77.2291316
13603,Gum Spring Dr,20850,39.0833975,-77.2291765
13602,Gum Spring Dr,20850,39.0833346,-77.2298726
10201,Nolan Drive,20850,39.0930132,-77.2108525
10209,Nolan Drive,20850,39.0932483,-77.2111669
10211,Nolan Drive,20850,39.0933883,-77.2113466
10215,Nolan Drive,20850,39.0935184,-77.2114364
10217,Nolan Drive,20850,39.0935183,-77.2117957
10221,Nolan Drive,20850,39.0935733,-77.2119305
10225,Nolan Drive,20850,39.0936783,-77.2121551
10229,Nolan Drive,20850,39.0938584,-77.2123347
10233,Nolan Drive,20850,39.0939183,-77.2125144
10237,Nolan Drive,20850,39.0941285,-77.2126042
10239,Nolan Drive,20850,39.0941934,-77.2128288
10245,Nolan Drive,20850,39.0942935,-77.2130084
10249,Nolan Drive,20850,39.0944335,-77.2131881
10253,Nolan Drive,20850,39.0944834,-77.2136372
10259,Nolan Drive,20850,39.0946734,-77.2139067
10261,Nolan Drive,20850,39.0951439,-77.2134576
10263,Nolan Drive,20850,39.0952939,-77.2137271
10267,Nolan Drive,20850,39.0948934,-77.2144457
10301,Nolan Drive,20850,39.095165,-77.215812
10305,Nolan Drive,20850,39.0953135,-77.2149847
10309,Nolan Drive,20850,39.0955887,-77.2149397
10278,Nolan Drive,20850,39.094821,-77.215466
10264,Nolan Drive,20850,39.094455,-77.215039
10260,Nolan Drive,20850,39.094008,-77.215076
10256,Nolan Drive,20850,39.09417,-77.214497
10248,Nolan Drive,20850,39.093741,-77.214149
10246,Nolan Drive,20850,39.093643,-77.213956
10222,Nolan Drive,20850,39.093066,-77.212814
10218,Nolan Drive,20850,39.092961,-77.212619
10216,Nolan Drive,20850,39.092861,-77.212429
10214,Nolan Drive,20850,39.0933042,-77.211921
10212,Nolan Drive,20850,39.092764,-77.212235
10210,Nolan Drive,20850,39.092662,-77.212035
10208,Nolan Drive,20850,39.092564,-77.211838
10206,Nolan Drive,20850,39.092056,-77.211696
10620,Outpost Drive,20850,39.0914463,-77.2186511
10614,Outpost Drive,20850,39.0914356,-77.2181743
10612,Outpost Drive,20850,39.0913558,-77.2179302
10610,Outpost Drive,20850,39.0912322,-77.2177331
10606,Outpost Drive,20850,39.090909,-77.217196
10604,Outpost Drive,20850,39.0907142,-77.2170333
10602,Outpost Drive,20850,39.0905388,-77.2168868
10600,Outpost Drive,20850,39.090351,-77.2167237
14601,Pebblewood Drive,20850,39.0950939,-77.2191165
14605,Pebblewood Drive,20850,39.09523,-77.218833
14609,Pebblewood Drive,20850,39.0951822,-77.2184879
14608,Pebblewood Drive,20850,39.0954373,-77.2186226
14604,Pebblewood Drive,20850,39.0954976,-77.2188351
14600,Pebblewood Drive,20850,39.0955409,-77.2191592
14552,Pebblewood Drive,20850,39.095384,-77.219717
14548,Pebblewood Drive,20850,39.0954478,-77.2201235
14544,Pebblewood Drive,20850,39.0953529,-77.2203214
14540,Pebblewood Drive,20850,39.0951952,-77.2205327
14536,Pebblewood Drive,20850,39.095055,-77.2207126
14532,Pebblewood Drive,20850,39.0949098,-77.2208762
14528,Pebblewood Drive,20850,39.0946816,-77.2210502
14524,Pebblewood Drive,20850,39.094483,-77.2211534
14520,Pebblewood Drive,20850,39.0942683,-77.2209663
14516,Pebblewood Drive,20850,39.0940546,-77.2212278
14512,Pebblewood Drive,20850,39.0935126,-77.2210247
14508,Pebblewood Drive,20850,39.0933684,-77.2209159
14504,Pebblewood Drive,20850,39.0932158,-77.220748
14500,Pebblewood Drive,20850,39.0930173,-77.2204415
14501,Pebblewood Drive,20850,39.093125,-77.2201496
14505,Pebblewood Drive,20850,39.0933602,-77.2201047
14509,Pebblewood Drive,20850,39.093551,-77.2204252
14523,Pebblewood Drive,20850,39.0945655,-77.2206426
14527,Pebblewood Drive,20850,39.0947626,-77.220476
14537,Pebblewood Drive,20850,39.0949066,-77.2202912
14547,Pebblewood Drive,20850,39.0950811,-77.2200634
10705,Pebblewood Place,20850,39.0941863,-77.2209517
10713,Pebblewood Place,20850,39.0941838,-77.2208983
10700,Pebblewood Place,20850,39.0941876,-77.2209783
13626,Pine View Lane,20850,45.1997138,-93.4425043
13626,Pine View Lane,20850,35.4848867,-91.8584781
13626,Pine View Lane,20850,38.4129484,-120.6674266
13624,Pine View Lane,20850,45.1996653,-93.4425028
13624,Pine View Lane,20850,35.4848867,-91.8584781
13624,Pine View Lane,20850,38.4129484,-120.6674266
13622,Pine View Lane,20850,45.1996168,-93.4425013
13622,Pine View Lane,20850,35.4848867,-91.8584781
13622,Pine View Lane,20850,38.4129484,-120.6674266
13620,Pine View Lane,20850,39.079598,-77.2351716
13608,Pine View Lane,20850,45.1992773,-93.442491
13608,Pine View Lane,20850,35.4848867,-91.8584781
13608,Pine View Lane,20850,38.4129484,-120.6674266
13606,Pine View Lane,20850,45.1992288,-93.4424896
13606,Pine View Lane,20850,35.4848867,-91.8584781
13606,Pine View Lane,20850,38.4129484,-120.6674266
13604,Pine View Lane,20850,45.1991803,-93.4424881
13604,Pine View Lane,20850,35.4848867,-91.8584781
13604,Pine View Lane,20850,38.4129484,-120.6674266
13602,Pine View Lane,20850,45.1991318,-93.4424866
13602,Pine View Lane,20850,35.4848867,-91.8584781
13602,Pine View Lane,20850,38.4129484,-120.6674266
13603,Pine View Lane,20850,39.0779197,-77.2335774
13605,Pine View Lane,20850,45.1998649,-93.443638
13605,Pine View Lane,20850,35.4670993,-91.8603717
13605,Pine View Lane,20850,38.4129484,-120.6674266
13607,Pine View Lane,20850,45.1998705,-93.4436382
13607,Pine View Lane,20850,35.4670993,-91.8603717
13607,Pine View Lane,20850,38.4129484,-120.6674266
13609,Pine View Lane,20850,45.1998762,-93.4436384
13609,Pine View Lane,20850,35.4670993,-91.8603717
13609,Pine View Lane,20850,38.4129484,-120.6674266
13611,Pine View Lane,20850,39.0788153,-77.2340714
13613,Pine View Lane,20850,45.1998876,-93.4436387
13613,Pine View Lane,20850,35.4670993,-91.8603717
13613,Pine View Lane,20850,38.4129484,-120.6674266
13615,Pine View Lane,20850,45.1998933,-93.4436389
13615,Pine View Lane,20850,35.4670993,-91.8603717
13615,Pine View Lane,20850,38.4129484,-120.6674266
13619,Pine View Lane,20850,45.1999046,-93.4436392
13619,Pine View Lane,20850,35.4670993,-91.8603717
13619,Pine View Lane,20850,38.4129484,-120.6674266
13621,Pine View Lane,20850,45.1999103,-93.4436394
13621,Pine View Lane,20850,35.4670993,-91.8603717
13621,Pine View Lane,20850,38.4129484,-120.6674266
13623,Pine View Lane,20850,45.199916,-93.4436396
13623,Pine View Lane,20850,35.4670993,-91.8603717
13623,Pine View Lane,20850,38.4129484,-120.6674266
10,Pinto Ct,20850,39.0974715,-77.2102686
6,Pinto Ct,20850,39.0975567,-77.2099542
2,Pinto Ct,20850,39.0977418,-77.2098195
1,Pinto Ct,20850,39.0979569,-77.2099542
5,Pinto Ct,20850,39.0979969,-77.2103136
9,Pinto Ct,20850,39.0979517,-77.210628
14644,Pinto Ln,20850,30.8027344,-86.5738713
14644,Pinto Ln,20850,43.662406,-116.7771125
14636,Pinto Ln,20850,30.8027342,-86.5738707
14636,Pinto Ln,20850,43.662406,-116.7771125
14632,Pinto Ln,20850,30.8027341,-86.5738704
14632,Pinto Ln,20850,43.662406,-116.7771125
14628,Pinto Ln,20850,30.802734,-86.5738701
14628,Pinto Ln,20850,43.662406,-116.7771125
14624,Pinto Ln,20850,30.8027339,-86.5738698
14624,Pinto Ln,20850,43.662406,-116.7771125
14620,Pinto Ln,20850,30.8027338,-86.5738695
14620,Pinto Ln,20850,43.662406,-116.7771125
14616,Pinto Ln,20850,30.8027338,-86.5738692
14616,Pinto Ln,20850,43.662406,-116.7771125
14612,Pinto Ln,20850,30.8027337,-86.5738689
14612,Pinto Ln,20850,43.662406,-116.7771125
14608,Pinto Ln,20850,30.8027336,-86.5738686
14608,Pinto Ln,20850,43.662406,-116.7771125
14604,Pinto Ln,20850,30.8027335,-86.5738683
14604,Pinto Ln,20850,43.662406,-116.7771125
14600,Pinto Ln,20850,30.8027334,-86.573868
14600,Pinto Ln,20850,43.662406,-116.7771125
14601,Pinto Ln,20850,30.8028583,-86.5742922
14601,Pinto Ln,20850,43.6624022,-116.7776953
14605,Pinto Ln,20850,30.8028583,-86.5742922
14605,Pinto Ln,20850,43.6624022,-116.7776953
14609,Pinto Ln,20850,30.8028583,-86.5742922
14609,Pinto Ln,20850,43.6624022,-116.7776953
14613,Pinto Ln,20850,30.8028583,-86.5742922
14613,Pinto Ln,20850,43.6624022,-116.7776953
14615,Pinto Ln,20850,30.8028583,-86.5742922
14615,Pinto Ln,20850,43.6624022,-116.7776953
14627,Pinto Ln,20850,30.8028583,-86.5742922
14627,Pinto Ln,20850,43.6624022,-116.7776953
14631,Pinto Ln,20850,30.8028583,-86.5742922
14631,Pinto Ln,20850,43.6624022,-116.7776953
14639,Pinto Ln,20850,30.8028583,-86.5742922
14639,Pinto Ln,20850,43.6624022,-116.7776953
14643,Pinto Ln,20850,30.8028583,-86.5742922
14643,Pinto Ln,20850,43.6624022,-116.7776953
14647,Pinto Ln,20850,30.8028583,-86.5742922
14647,Pinto Ln,20850,43.6624022,-116.7776953
14701,Pinto Ln,20850,30.8028583,-86.5742922
14701,Pinto Ln,20850,43.6624022,-116.7776953
14705,Pinto Ln,20850,30.8028583,-86.5742922
14705,Pinto Ln,20850,43.6624022,-116.7776953
14709,Pinto Ln,20850,30.8028583,-86.5742922
14709,Pinto Ln,20850,43.6624022,-116.7776953
14713,Pinto Ln,20850,30.8028583,-86.5742922
14713,Pinto Ln,20850,43.6624022,-116.7776953
14714,Pinto Ln,20850,30.8027359,-86.5738767
14714,Pinto Ln,20850,43.662406,-116.7771125
14708,Pinto Ln,20850,30.8027358,-86.5738762
14708,Pinto Ln,20850,43.662406,-116.7771125
14704,Pinto Ln,20850,30.8027357,-86.5738759
14704,Pinto Ln,20850,43.662406,-116.7771125
14700,Pinto Ln,20850,30.8027356,-86.5738756
14700,Pinto Ln,20850,43.662406,-116.7771125
14336,Platinum Drive,20850,39.0932481,-77.2191135
14332,Platinum Drive,20850,39.0930926,-77.2193067
14328,Platinum Drive,20850,39.0929258,-77.2194332
14324,Platinum Drive,20850,39.0932481,-77.2191135
14320,Platinum Drive,20850,39.0924382,-77.2195761
14316,Platinum Drive,20850,39.0921802,-77.219589
14308,Platinum Drive,20850,39.0915058,-77.2196689
14304,Platinum Drive,20850,39.0915058,-77.2196689
14300,Platinum Drive,20850,39.0910881,-77.2196919
14240,Platinum Drive,20850,39.090713,-77.2197257
14236,Platinum Drive,20850,39.0905144,-77.2197424
14232,Platinum Drive,20850,39.0902963,-77.2197532
14228,Platinum Drive,20850,39.0900565,-77.2197651
14224,Platinum Drive,20850,39.0898785,-77.2197739
14220,Platinum Drive,20850,39.0915058,-77.2196689
14204,Platinum Drive,20850,39.0884683,-77.2198189
14200,Platinum Drive,20850,39.0882508,-77.2196929
14205,Platinum Drive,20850,39.0885048,-77.2191314
14209,Platinum Drive,20850,39.0889543,-77.219174
14213,Platinum Drive,20850,39.0891942,-77.2191621
14217,Platinum Drive,20850,39.0893867,-77.2191526
14221,Platinum Drive,20850,39.0896084,-77.2191416
14225,Platinum Drive,20850,39.0898482,-77.2191297
14229,Platinum Drive,20850,39.0900663,-77.2191189
14233,Platinum Drive,20850,39.090288,-77.2191079
14237,Platinum Drive,20850,39.0904878,-77.219098
14241,Platinum Drive,20850,39.090705,-77.219079
14301,Platinum Drive,20850,39.091083,-77.2190464
14305,Platinum Drive,20850,39.0912793,-77.2190356
14309,Platinum Drive,20850,39.0885048,-77.2191314
14313,Platinum Drive,20850,39.0919768,-77.2189989
14317,Platinum Drive,20850,39.0921949,-77.218988
14321,Platinum Drive,20850,39.0924347,-77.2189759
14325,Platinum Drive,20850,39.0926997,-77.2189053
14329,Platinum Drive,20850,39.0928934,-77.2187225
14614,Pommel Dr,20850,39.0954884,-77.2118806
14640,Pommel Dr,20850,39.0968954,-77.2126491
14636,Pommel Dr,20850,39.0966803,-77.2125144
14632,Pommel Dr,20850,39.0964302,-77.2124246
14628,Pommel Dr,20850,39.0962501,-77.2122449
14624,Pommel Dr,20850,39.0959999,-77.2121551
14620,Pommel Dr,20850,39.0957848,-77.2120203
14616,Pommel Dr,20850,39.0955747,-77.2119305
14612,Pommel Dr,20850,39.0953947,-77.2117508
14608,Pommel Dr,20850,39.0952096,-77.2115263
14604,Pommel Dr,20850,39.0950646,-77.2113017
14600,Pommel Dr,20850,39.0949546,-77.2110322
14601,Pommel Dr,20850,39.0953199,-77.2107178
14603,Pommel Dr,20850,39.0953513,-77.2108414
14609,Pommel Dr,20850,39.0955799,-77.2112568
14613,Pommel Dr,20850,39.0958,-77.2114364
14619,Pommel Dr,20850,39.0960952,-77.2115712
14623,Pommel Dr,20850,39.0963453,-77.211661
14627,Pommel Dr,20850,39.0965704,-77.2118856
14631,Pommel Dr,20850,39.0968206,-77.2119754
14635,Pommel Dr,20850,39.0970357,-77.2121102
14639,Pommel Dr,20850,39.0973308,-77.2122449
14701,Pommel Dr,20850,39.0978061,-77.2125593
14705,Pommel Dr,20850,39.0979861,-77.212739
14709,Pommel Dr,20850,39.0981662,-77.2129186
14713,Pommel Dr,20850,39.0982812,-77.213233
14717,Pommel Dr,20850,39.0983061,-77.2134576
14721,Pommel Dr,20850,39.0982835,-77.2137944
14725,Pommel Dr,20850,39.0982108,-77.2140415
14729,Pommel Dr,20850,39.0980757,-77.214266
14733,Pommel Dr,20850,39.0980656,-77.2145355
14737,Pommel Dr,20850,39.0979754,-77.214805
14741,Pommel Dr,20850,39.0976827,-77.2148724
14738,Pommel Dr,20850,39.0975052,-77.2145355
14734,Pommel Dr,20850,39.0976354,-77.214266
14730,Pommel Dr,20850,39.0977656,-77.2139966
14720,Pommel Dr,20850,39.0978957,-77.2137271
14710,Pommel Dr,20850,39.0978909,-77.2133228
11101,Potomac Oaks Drive,20850,39.0846785,-77.2246631
11103,Potomac Oaks Drive,20850,39.0846008,-77.2248652
11105,Potomac Oaks Drive,20850,39.0845406,-77.2250449
11107,Potomac Oaks Drive,20850,39.084498,-77.2252021
11111,Potomac Oaks Drive,20850,39.0843076,-77.2256512
11113,Potomac Oaks Drive,20850,39.0842475,-77.2258308
11115,Potomac Oaks Drive,20850,39.0841698,-77.2260329
11117,Potomac Oaks Drive,20850,39.0841097,-77.2262125
11119,Potomac Oaks Drive,20850,39.0840671,-77.2263697
11121,Potomac Oaks Drive,20850,39.0839944,-77.2266167
11123,Potomac Oaks Drive,20850,39.0839342,-77.2267963
11201,Potomac Oaks Drive,20850,39.0836536,-77.2275149
11203,Potomac Oaks Drive,20850,39.0836285,-77.2276496
11215,Potomac Oaks Drive,20850,39.083498,-77.227969
11217,Potomac Oaks Drive,20850,39.0834431,-77.2281436
11219,Potomac Oaks Drive,20850,39.083418,-77.2282783
11221,Potomac Oaks Drive,20850,39.0833579,-77.228458
11223,Potomac Oaks Drive,20850,39.0832927,-77.2285927
11225,Potomac Oaks Drive,20850,39.0832676,-77.2287274
11301,Potomac Oaks Drive,20850,39.0830069,-77.2296256
11303,Potomac Oaks Drive,20850,39.0829167,-77.229895
11305,Potomac Oaks Drive,20850,39.0828215,-77.2301196
11307,Potomac Oaks Drive,20850,39.0827663,-77.2303441
11309,Potomac Oaks Drive,20850,39.0826361,-77.2306136
11315,Potomac Oaks Drive,20850,39.0822803,-77.231377
11317,Potomac Oaks Drive,20850,39.0822701,-77.2316464
11319,Potomac Oaks Drive,20850,39.0822199,-77.2319159
11401,Potomac Oaks Drive,20850,39.0821297,-77.2321853
11403,Potomac Oaks Drive,20850,39.0821096,-77.2323649
11405,Potomac Oaks Drive,20850,39.0820419,-77.2326568
11407,Potomac Oaks Drive,20850,39.0819692,-77.2329038
11409,Potomac Oaks Drive,20850,39.081914,-77.2331284
11411,Potomac Oaks Drive,20850,39.0817787,-77.2333529
11413,Potomac Oaks Drive,20850,39.0817285,-77.2336223
11415,Potomac Oaks Drive,20850,39.0817534,-77.2338469
11417,Potomac Oaks Drive,20850,39.081961,-77.2340939
11419,Potomac Oaks Drive,20850,39.0820337,-77.2338469
11421,Potomac Oaks Drive,20850,39.0821239,-77.2335774
11423,Potomac Oaks Drive,20850,39.0822191,-77.2333529
11425,Potomac Oaks Drive,20850,39.0822743,-77.2331284
11427,Potomac Oaks Drive,20850,39.0823245,-77.2328589
11429,Potomac Oaks Drive,20850,39.0823697,-77.2325446
11431,Potomac Oaks Drive,20850,39.0824024,-77.2322976
11408,Potomac Oaks Drive,20850,39.0814285,-77.2330835
11406,Potomac Oaks Drive,20850,39.0814837,-77.2328589
11318,Potomac Oaks Drive,20850,39.0817496,-77.2316464
11316,Potomac Oaks Drive,20850,39.0817998,-77.231377
11314,Potomac Oaks Drive,20850,39.0817925,-77.23113
11312,Potomac Oaks Drive,20850,39.0818201,-77.2308381
11310,Potomac Oaks Drive,20850,39.0819504,-77.2305687
11306,Potomac Oaks Drive,20850,39.082306,-77.2301645
11304,Potomac Oaks Drive,20850,39.0824412,-77.2299399
11302,Potomac Oaks Drive,20850,39.0825315,-77.2296705
11300,Potomac Oaks Drive,20850,39.0825641,-77.2294235
11228,Potomac Oaks Drive,20850,39.0827621,-77.2288621
11218,Potomac Oaks Drive,20850,39.0828874,-77.2285478
11216,Potomac Oaks Drive,20850,39.0829425,-77.2283232
11214,Potomac Oaks Drive,20850,39.0830728,-77.2280538
11212,Potomac Oaks Drive,20850,39.083123,-77.2277843
11130,Potomac Oaks Drive,20850,39.0833785,-77.2272005
11128,Potomac Oaks Drive,20850,39.0834787,-77.2270209
11126,Potomac Oaks Drive,20850,39.0835339,-77.2267963
11124,Potomac Oaks Drive,20850,39.083594,-77.2266167
11122,Potomac Oaks Drive,20850,39.0836542,-77.2264371
11116,Potomac Oaks Drive,20850,39.0838396,-77.2259431
11114,Potomac Oaks Drive,20850,39.0838597,-77.2257634
11112,Potomac Oaks Drive,20850,39.0839198,-77.2255838
11110,Potomac Oaks Drive,20850,39.08402,-77.2254042
11108,Potomac Oaks Drive,20850,39.0840752,-77.2251796
11106,Potomac Oaks Drive,20850,39.0841353,-77.225
11104,Potomac Oaks Drive,20850,39.0842355,-77.2248203
11102,Potomac Oaks Drive,20850,39.0842556,-77.2246407
11100,Potomac Oaks Drive,20850,39.084333,-77.224444
11008,Potomac Oaks Drive,20850,39.0845186,-77.2239446
11006,Potomac Oaks Drive,20850,39.0845963,-77.2237425
11004,Potomac Oaks Drive,20850,39.0846515,-77.2235179
11002,Potomac Oaks Drive,20850,39.0847066,-77.2232934
11000,Potomac Oaks Drive,20850,39.0848068,-77.2231137
11005,Potomac Oaks Drive,20850,39.0850218,-77.2236078
11007,Potomac Oaks Drive,20850,39.0849616,-77.2237874
11009,Potomac Oaks Drive,20850,39.0849015,-77.223967
11011,Potomac Oaks Drive,20850,39.0848463,-77.2241916
10405,Quietwood Drive,20850,39.0916605,-77.2157695
10409,Quietwood Drive,20850,39.0918213,-77.2155575
10413,Quietwood Ter,20850,39.091991,-77.2153439
10405,Quietwood Ter,20850,39.091991,-77.2153439
10409,Quietwood Ter,20850,39.091991,-77.2153439
10412,Quietwood Ter,20850,39.0919914,-77.2157025
10408,Quietwood Ter,20850,39.0919914,-77.2157025
10404,Quietwood Ter,20850,39.0919914,-77.2157025
10400,Quietwood Ter,20850,39.0919914,-77.2157025
14501,Snapdragon Circle,20850,39.0925262,-77.2170321
14505,Snapdragon Circle,20850,39.0926607,-77.2168505
14509,Snapdragon Circle,20850,39.0927975,-77.2166275
14513,Snapdragon Circle,20850,39.0929221,-77.2164396
14517,Snapdragon Circle,20850,39.0931057,-77.2162967
14527,Snapdragon Circle,20850,39.0940059,-77.2165221
14531,Snapdragon Circle,20850,39.0942446,-77.2167366
14535,Snapdragon Circle,20850,39.09438,-77.2169487
14601,Snapdragon Circle,20850,39.094498,-77.2172202
14605,Snapdragon Circle,20850,39.0945638,-77.2175411
14609,Snapdragon Circle,20850,39.0944464,-77.2182457
14603,Snapdragon Circle,20850,39.0945415,-77.2174094
14621,Snapdragon Circle,20850,39.0940618,-77.2189728
10401,Snapdragon Pl,20850,39.0932922,-77.2162691
10405,Snapdragon Pl,20850,39.0933685,-77.215957
10409,Snapdragon Pl,20850,39.0936155,-77.2160211
10410,Snapdragon Pl,20850,39.0936155,-77.2160211
10406,Snapdragon Pl,20850,39.093614,-77.2160273
10402,Snapdragon Pl,20850,39.0937678,-77.2164121
11403,Spice Oak Terrace,20850,39.0795852,-77.2355982
11405,Spice Oak Terrace,20850,39.07935,-77.2356431
11404,Spice Oak Terrace,20850,39.0790948,-77.2355084
11402,Spice Oak Terrace,20850,39.0790374,-77.2351716
11400,Spice Oak Terrace,20850,39.0791452,-77.2348797
14301,Stonebridge View Drive,20850,39.0895094,-77.2141173
14303,Stonebridge View Drive,20850,39.0896265,-77.2143243
14305,Stonebridge View Drive,20850,39.0897622,-77.2145639
14307,Stonebridge View Drive,20850,39.0898994,-77.2147906
14309,Stonebridge View Drive,20850,39.0997856,-77.2226768
14311,Stonebridge View Drive,20850,39.0995681,-77.2225118
14313,Stonebridge View Drive,20850,39.0993512,-77.2223452
14405,Stonebridge View Drive,20850,39.0919342,-77.216138
14409,Stonebridge View Drive,20850,39.0920779,-77.2163641
14413,Stonebridge View Drive,20850,39.0922215,-77.21659
14417,Stonebridge View Drive,20850,39.0923813,-77.2168413
14513,Stonebridge View Drive,20850,39.0946165,-77.2191616
14517,Stonebridge View Drive,20850,39.0948792,-77.219184
14519,Stonebridge View Drive,20850,39.0937927,-77.2191539
14508,Stonebridge View Drive,20850,39.094236,-77.2197005
14504,Stonebridge View Drive,20850,39.0937748,-77.2191407
14500,Stonebridge View Drive,20850,39.0934573,-77.2192701
14303,Stoneview Pl,20850,39.0911512,-77.2178984
14305,Stoneview Pl,20850,39.0909459,-77.21762
14302,Stoneview Pl,20850,39.0909459,-77.21762
14414,Sylvan Glade Drive,20850,39.0925754,-77.2143443
14410,Sylvan Glade Drive,20850,39.0923181,-77.2138367
14408,Sylvan Glade Drive,20850,39.0921949,-77.2135938
14406,Sylvan Glade Drive,20850,39.0920838,-77.2133745
14404,Sylvan Glade Drive,20850,39.0919311,-77.2130734
14402,Sylvan Glade Drive,20850,39.092033,-77.2128209
14400,Sylvan Glade Drive,20850,39.092033,-77.2128209
14401,Sylvan Glade Drive,20850,39.092033,-77.2128209
14403,Sylvan Glade Drive,20850,39.092033,-77.2128209
14405,Sylvan Glade Drive,20850,39.0920724,-77.2128986
14407,Sylvan Glade Drive,20850,39.0923709,-77.2130094
14409,Sylvan Glade Drive,20850,39.0924646,-77.2131943
14411,Sylvan Glade Drive,20850,39.0925759,-77.2134138
14413,Sylvan Glade Drive,20850,39.0927045,-77.2136675
14415,Sylvan Glade Drive,20850,39.0927574,-77.2137717
14417,Sylvan Glade Drive,20850,39.0928102,-77.213876
14425,Sylvan Glade Drive,20850,39.0930529,-77.2143465
14427,Sylvan Glade Drive,20850,39.0931168,-77.2144699
14433,Sylvan Glade Drive,20850,39.0932908,-77.2148062
14439,Sylvan Glade Drive,20850,39.09322,-77.2151465
14441,Sylvan Glade Drive,20850,39.09322,-77.2151465
14440,Sylvan Glade Drive,20850,39.09322,-77.2151465
14436,Sylvan Glade Drive,20850,39.0929893,-77.2152699
14432,Sylvan Glade Drive,20850,39.0928809,-77.2150605
14428,Sylvan Glade Drive,20850,39.0927531,-77.2148136
13607,Valley Oak Cir,20850,41.8727415,-86.6088039
13609,Valley Oak Cir,20850,41.8727038,-86.6088045
13611,Valley Oak Cir,20850,41.8726662,-86.6088051
13613,Valley Oak Cir,20850,41.8726329,-86.6088057
13615,Valley Oak Cir,20850,41.8725995,-86.6088062
13617,Valley Oak Cir,20850,41.8725661,-86.6088068
13619,Valley Oak Cir,20850,39.079426,-77.233721
13621,Valley Oak Cir,20850,41.8724993,-86.6088078
13623,Valley Oak Cir,20850,41.872466,-86.6088084
13625,Valley Oak Cir,20850,41.8724326,-86.6088089
13631,Valley Oak Cir,20850,41.8723324,-86.6088106
13633,Valley Oak Cir,20850,41.8722991,-86.6088111
13635,Valley Oak Cir,20850,41.8722657,-86.6088116
13637,Valley Oak Cir,20850,41.8722323,-86.6088122
13639,Valley Oak Cir,20850,41.8721989,-86.6088127
13641,Valley Oak Cir,20850,41.872166,-86.6088133
13701,Valley Oak Cir,20850,41.8710954,-86.6095431
13703,Valley Oak Cir,20850,41.8710483,-86.6095432
13705,Valley Oak Cir,20850,41.8710012,-86.6095432
13707,Valley Oak Cir,20850,41.8709541,-86.6095432
13709,Valley Oak Cir,20850,39.079577,-77.231078
13711,Valley Oak Cir,20850,41.8708594,-86.6083356
13713,Valley Oak Cir,20850,41.8708123,-86.6083356
13715,Valley Oak Cir,20850,41.8707652,-86.6083357
13717,Valley Oak Cir,20850,41.8707181,-86.6083357
13723,Valley Oak Cir,20850,41.8705767,-86.6083358
13727,Valley Oak Cir,20850,41.8704825,-86.6083359
13731,Valley Oak Cir,20850,41.8703835,-86.6083366
13735,Valley Oak Cir,20850,41.8702893,-86.6083374
13739,Valley Oak Cir,20850,41.8701951,-86.6083381
13743,Valley Oak Cir,20850,41.8701009,-86.6083388
13745,Valley Oak Cir,20850,41.8700538,-86.6083392
13742,Valley Oak Cir,20850,41.8704769,-86.6100956
13740,Valley Oak Cir,20850,41.8705044,-86.6102031
13608,Valley Oak Cir,20850,41.8722246,-86.6095639
13606,Valley Oak Cir,20850,41.8722473,-86.6095635
13604,Valley Oak Cir,20850,41.8722701,-86.6095632
13602,Valley Oak Cir,20850,41.8722928,-86.6095628
13600,Valley Oak Cir,20850,41.8723156,-86.6095624
22,Yearling Court,20850,39.0964196,-77.2141313
18,Yearling Court,20850,39.0962345,-77.2139067
14,Yearling Court,20850,39.0960845,-77.2136372
10,Yearling Court,20850,39.0958995,-77.2134127
6,Yearling Court,20850,39.0957194,-77.213233
2,Yearling Court,20850,39.0957245,-77.2129186
1,Yearling Court,20850,39.0959798,-77.212694
5,Yearling Court,20850,39.0961548,-77.2128288
9,Yearling Court,20850,39.0962298,-77.2131432
13,Yearling Court,20850,39.0963748,-77.2133678
17,Yearling Court,20850,39.0964798,-77.2135923
21,Yearling Court,20850,39.0967099,-77.2138618
10249,Yearling Drive,20850,39.095984,-77.2148948
10245,Yearling Drive,20850,39.0961192,-77.2146703
10241,Yearling Drive,20850,39.0962944,-77.2144457
10229,Yearling Drive,20850,39.0968751,-77.2135474
10225,Yearling Drive,20850,39.0969953,-77.2131881
10213,Yearling Drive,20850,39.0975361,-77.2119305
10209,Yearling Drive,20850,39.0977563,-77.2117508
10208,Yearling Drive,20850,39.0980111,-77.2122432
10218,Yearling Drive,20850,39.0976258,-77.2130983
10222,Yearling Drive,20850,39.0974556,-77.2133678
10226,Yearling Drive,20850,39.0973604,-77.2135923
10230,Yearling Drive,20850,39.0972653,-77.2138169
10234,Yearling Drive,20850,39.0971751,-77.2140864
10301,Yearling Drive,20850,39.096279,-77.216204
10305,Yearling Drive,20850,39.096293,-77.216881
10309,Yearling Drive,20850,39.095899,-77.217463
10311,Yearling Drive,20850,39.095592,-77.2176
10313,Yearling Drive,20850,39.0952849,-77.217611
10315,Yearling Drive,20850,39.095067,-77.217453
10317,Yearling Drive,20850,39.094935,-77.217161
10319,Yearling Drive,20850,39.094813,-77.216919
10321,Yearling Drive,20850,39.0946349,-77.216688
10323,Yearling Drive,20850,39.094516,-77.216303
10322,Yearling Drive,20850,39.09486,-77.216036
10320,Yearling Drive,20850,39.095232,-77.21622
10318,Yearling Drive,20850,39.095381,-77.216449
10316,Yearling Drive,20850,39.0954727,-77.2167181
10312,Yearling Drive,20850,39.09563,-77.216984
